{
 "type": "FeatureCollection",
 "features": [
  {
   "type": "Feature",
   "geometry": {
    "type": "Point",
    "coordinates": [
     48.69141,
     -36.17336
    ]
   },
   "properties": {
    "name": "Camp de bandit des collines du nord",
    "description": "**Type :** Nature sauvage · Colline\n**Installations :** Atelier de travailleur du cuir, Scierie\n**Trajets :** Venor'taar 45 min",
    "_umap_options": {
     "color": "Crimson",
     "iconClass": "Default"
    }
   }
  },
  {
   "type": "Feature",
   "geometry": {
    "type": "Point",
    "coordinates": [
     -104.23828,
     -40.9799
    ]
   },
   "properties": {
    "name": "Grotte des lupiaans",
    "description": "**Type :** Nature sauvage · Souterrain\n**Mineur :** Minerai de feerin, Minerai d'oreerin, Harkrill\n**Alchimiste :** Bonnir souterrain\n**Monstres :** Lupiaan alpha + Jeune lupiaan + Lupiaan féroce (2696)\n**Trajets :** Étang de Balanol 5 min\n**À vérifier :** position approximative, absente du fond de carte",
    "_umap_options": {
     "color": "Crimson",
     "iconClass": "Default"
    }
   }
  }
 ]
}