{
 "type": "FeatureCollection",
 "features": [
  {
   "type": "Feature",
   "geometry": {
    "type": "Point",
    "coordinates": [
     -1.40625,
     3.86425
    ]
   },
   "properties": {
    "name": "Horten'taar",
    "description": "**Type :** Capitale · Colline\n**Installations :** Banque, Boîte aux lettres, Forge, Marchand, Relais de voyage, Taverne\n**Métiers :** Mage, Sculpteur, Travailleur du cuir\n**Trajets :** Port d'Horten'taar 15 min, Fermes d'Horten'taar 15 min, Scierie d'Horten'taar 15 min\n**Relais :** Martel 15 min (350 G), Venor'taar 15 min (350 G)",
    "_umap_options": {
     "color": "Goldenrod",
     "iconClass": "Default"
    }
   }
  },
  {
   "type": "Feature",
   "geometry": {
    "type": "Point",
    "coordinates": [
     -78.75,
     0.35156
    ]
   },
   "properties": {
    "name": "Martel",
    "description": "**Type :** Village · Colline\n**Installations :** Boîte aux lettres, Fonderie, Forge, Intendant des terres, Marchand, Relais de voyage, Taverne, École de forge\n**Métiers :** Forgeron, Mineur, Travailleur du cuir\n**Trajets :** Champs de Martel 15 min, Mine de Martel 30 min, Fermes d'Horten'taar 45 min, Balanol 1 h\n**Relais :** Horten'taar 15 min (350 G), Venor'taar 30 min (700 G)\n**Activités :** Travailler à la taverne, Apprendre les bases de la forge",
    "_umap_options": {
     "color": "SaddleBrown",
     "iconClass": "Default"
    }
   }
  },
  {
   "type": "Feature",
   "geometry": {
    "type": "Point",
    "coordinates": [
     -78.75,
     -30.44867
    ]
   },
   "properties": {
    "name": "Balanol",
    "description": "**Type :** Ville · Forêt\n**Installations :** Banque, Boîte aux lettres, Marchand, Relais de voyage, Taverne, Scierie, Laboratoire d'alchimie\n**Métiers :** Couturier, Sculpteur, Travailleur du cuir, Alchimiste\n**Trajets :** Étang de Balanol 15 min, Clairière de Balanol 30 min, Martel 1 h\n**Relais :** Venor'taar 45 min (1050 G)",
    "_umap_options": {
     "color": "SaddleBrown",
     "iconClass": "Default"
    }
   }
  },
  {
   "type": "Feature",
   "geometry": {
    "type": "Point",
    "coordinates": [
     73.30078,
     0.35156
    ]
   },
   "properties": {
    "name": "Venor'taar",
    "description": "**Type :** Village · Champ\n**Installations :** Boîte aux lettres, Laboratoire d'alchimie, Marchand, Relais de voyage, Taverne, École d'alchimie\n**Métiers :** Alchimiste\n**Trajets :** Petite forêt de Venor'taar 15 min, Cavernes de Venor'taar 15 min, Fermes de Venor'taar 15 min, Camp de bandit 45 min, Scierie d'Horten'taar 45 min\n**Relais :** Horten'taar 15 min (350 G), Martel 30 min (700 G), Balanol 45 min (1050 G)",
    "_umap_options": {
     "color": "SaddleBrown",
     "iconClass": "Default"
    }
   }
  }
 ]
}